IRIDIUM 26              
1 24903U 97043A   25327.83249365  .00000484  00000+0  15590-3 0  9998
2 24903  86.3974  43.5075 0001962  94.7366 265.4056 14.37306072479678
IRIDIUM 22              
1 24907U 97043E   25327.75563308  .00000388  00000+0  12671-3 0  9999
2 24907  86.3979  47.2167 0002101  98.0379 262.1056 14.36101780479679
DUMMY MASS 1            
1 24925U 97048A   25327.83093332  .00000559  00000+0  59126-4 0  9995
2 24925  86.3352  61.4546 0004694 314.8659  45.2184 14.87157791528858
DUMMY MASS 2            
1 24926U 97048B   25327.81974069  .00000547  00000+0  58064-4 0  9996
2 24926  86.3352  63.0974 0005852 328.2206  31.8664 14.86908386528628
IRIDIUM 29              
1 24944U 97051A   25327.86016019  .00000578  00000+0  19002-3 0  9999
2 24944  86.3950  76.8696 0002258  96.8221 263.3233 14.36637618476197
IRIDIUM 33              
1 24946U 97051C   25327.87960769  .00000435  00000+0  14600-3 0  9993
2 24946  86.3866  76.1370 0005792 278.0254  82.0284 14.35016907475645
IRIDIUM 28              
1 24948U 97051E   25327.80258420  .00000538  00000+0  17296-3 0  9990
2 24948  86.3957  74.3175 0001534  93.3807 266.7566 14.37538407476778
IRIDIUM 36              
1 24967U 97056C   25327.94977272  .00000539  00000+0  17282-3 0  9990
2 24967  86.3945 105.8854 0001869  97.8496 262.2914 14.37758658475177
